[
    {
        "Altitude(m)": 714137.3636227767,
        "Argument of Periapsis(deg)": 0.006834072711976239,
        "Eccentricity": 0.0,
        "Inclination(deg)": 45.0,
        "Latitude(deg)": -36.07324523099984,
        "Longitude(deg)": 5.98264310487537,
        "Mean Anomaly(deg)": -123.98917001151149,
        "RAAN(deg)": 239.9935488351251,
        "Satellite Name": "Constellation 1 1070",
        "Satellite Number": 1070,
        "Semi-Major Axis(m)": 7083131.272910544,
        "Time(s)": 114
    },
    {
        "Altitude(m)": 714149.4524192318,
        "Argument of Periapsis(deg)": 0.006894020718221645,
        "Eccentricity": 0.0,
        "Inclination(deg)": 45.0,
        "Latitude(deg)": -36.1028450290613,
        "Longitude(deg)": 6.043863158377573,
        "Mean Anomaly(deg)": -123.92846887126159,
        "RAAN(deg)": 239.99349224595946,
        "Satellite Name": "Constellation 1 1070",
        "Satellite Number": 1070,
        "Semi-Major Axis(m)": 7083131.272910544,
        "Time(s)": 115
    },
    {
        "Altitude(m)": 714161.5284546155,
        "Argument of Periapsis(deg)": 0.006953968724467052,
        "Eccentricity": 0.0,
        "Inclination(deg)": 45.0,
        "Latitude(deg)": -36.13240899381294,
        "Longitude(deg)": 6.10513206251396,
        "Mean Anomaly(deg)": -123.86776773101165,
        "RAAN(deg)": 239.9934356567939,
        "Satellite Name": "Constellation 1 1070",
        "Satellite Number": 1070,
        "Semi-Major Axis(m)": 7083131.272910544,
        "Time(s)": 116
    },
    {
        "Altitude(m)": 714173.5916853879,
        "Argument of Periapsis(deg)": 0.007013916730712457,
        "Eccentricity": 0.0,
        "Inclination(deg)": 45.0,
        "Latitude(deg)": -36.161937060716866,
        "Longitude(deg)": 6.16644984779484,
        "Mean Anomaly(deg)": -123.80706659076178,
        "RAAN(deg)": 239.99337906762835,
        "Satellite Name": "Constellation 1 1070",
        "Satellite Number": 1070,
        "Semi-Major Axis(m)": 7083131.272910544,
        "Time(s)": 117
    },
    {
        "Altitude(m)": 714185.6420680545,
        "Argument of Periapsis(deg)": 0.007073864736957864,
        "Eccentricity": 0.0,
        "Inclination(deg)": 45.0,
        "Latitude(deg)": -36.19142916518047,
        "Longitude(deg)": 6.2278165444842,
        "Mean Anomaly(deg)": -123.74636545051195,
        "RAAN(deg)": 239.9933224784628,
        "Satellite Name": "Constellation 1 1070",
        "Satellite Number": 1070,
        "Semi-Major Axis(m)": 7083131.272910544,
        "Time(s)": 118
    },
    {
        "Altitude(m)": 714197.6795591689,
        "Argument of Periapsis(deg)": 0.0071338127432032696,
        "Eccentricity": 0.0,
        "Inclination(deg)": 45.0,
        "Latitude(deg)": -36.220885242556776,
        "Longitude(deg)": 6.28923201450058,
        "Mean Anomaly(deg)": -123.685664310262,
        "RAAN(deg)": 239.99326588929725,
        "Satellite Name": "Constellation 1 1070",
        "Satellite Number": 1070,
        "Semi-Major Axis(m)": 7083131.272910544,
        "Time(s)": 119
    },
    {
        "Altitude(m)": 714209.7041153141,
        "Argument of Periapsis(deg)": 0.007193760749448674,
        "Eccentricity": 0.0,
        "Inclination(deg)": 45.0,
        "Latitude(deg)": -36.250305228143404,
        "Longitude(deg)": 6.35069662380406,
        "Mean Anomaly(deg)": -123.62496317001208,
        "RAAN(deg)": 239.9932093001316,
        "Satellite Name": "Constellation 1 1070",
        "Satellite Number": 1070,
        "Semi-Major Axis(m)": 7083131.272910544,
        "Time(s)": 120
    },
    {
        "Altitude(m)": 714221.7156931316,
        "Argument of Periapsis(deg)": 0.007253708755694079,
        "Eccentricity": 0.0,
        "Inclination(deg)": 45.0,
        "Latitude(deg)": -36.27968905718489,
        "Longitude(deg)": 6.412210233812886,
        "Mean Anomaly(deg)": -123.56426202976223,
        "RAAN(deg)": 239.99315271096606,
        "Satellite Name": "Constellation 1 1070",
        "Satellite Number": 1070,
        "Semi-Major Axis(m)": 7083131.272910544,
        "Time(s)": 121
    },
    {
        "Altitude(m)": 714233.7142492847,
        "Argument of Periapsis(deg)": 0.0073136567619394854,
        "Eccentricity": 0.0,
        "Inclination(deg)": 45.0,
        "Latitude(deg)": -36.30903666487161,
        "Longitude(deg)": 6.473772873790139,
        "Mean Anomaly(deg)": -123.50356088951227,
        "RAAN(deg)": 239.9930961218005,
        "Satellite Name": "Constellation 1 1070",
        "Satellite Number": 1070,
        "Semi-Major Axis(m)": 7083131.272910544,
        "Time(s)": 122
    },
    {
        "Altitude(m)": 714245.6997404941,
        "Argument of Periapsis(deg)": 0.0073736047681848904,
        "Eccentricity": 0.0,
        "Inclination(deg)": 45.0,
        "Latitude(deg)": -36.33834798634029,
        "Longitude(deg)": 6.535384572745381,
        "Mean Anomaly(deg)": -123.44285974926234,
        "RAAN(deg)": 239.99303953263495,
        "Satellite Name": "Constellation 1 1070",
        "Satellite Number": 1070,
        "Semi-Major Axis(m)": 7083131.272910544,
        "Time(s)": 123
    },
    {
        "Altitude(m)": 714257.6721235206,
        "Argument of Periapsis(deg)": 0.007433552774430298,
        "Eccentricity": 0.0,
        "Inclination(deg)": 45.0,
        "Latitude(deg)": -36.36762295667432,
        "Longitude(deg)": 6.597045359433292,
        "Mean Anomaly(deg)": -123.38215860901246,
        "RAAN(deg)": 239.9929829434694,
        "Satellite Name": "Constellation 1 1070",
        "Satellite Number": 1070,
        "Semi-Major Axis(m)": 7083131.272910544,
        "Time(s)": 124
    },
    {
        "Altitude(m)": 714269.6313551666,
        "Argument of Periapsis(deg)": 0.007493500780675703,
        "Eccentricity": 0.0,
        "Inclination(deg)": 45.0,
        "Latitude(deg)": -36.39686151090405,
        "Longitude(deg)": 6.658755262352445,
        "Mean Anomaly(deg)": -123.32145746876265,
        "RAAN(deg)": 239.9929263543038,
        "Satellite Name": "Constellation 1 1070",
        "Satellite Number": 1070,
        "Semi-Major Axis(m)": 7083131.272910544,
        "Time(s)": 125
    },
    {
        "Altitude(m)": 714281.577392271,
        "Argument of Periapsis(deg)": 0.007553448786921108,
        "Eccentricity": 0.0,
        "Inclination(deg)": 45.0,
        "Latitude(deg)": -36.42606358400753,
        "Longitude(deg)": 6.720514141647175,
        "Mean Anomaly(deg)": -123.26075632851263,
        "RAAN(deg)": 239.9928697651382,
        "Satellite Name": "Constellation 1 1070",
        "Satellite Number": 1070,
        "Semi-Major Axis(m)": 7083131.272910544,
        "Time(s)": 126
    },
    {
        "Altitude(m)": 714293.5101917255,
        "Argument of Periapsis(deg)": 0.007613396793166514,
        "Eccentricity": 0.0,
        "Inclination(deg)": 45.0,
        "Latitude(deg)": -36.4552291109089,
        "Longitude(deg)": 6.782322361493366,
        "Mean Anomaly(deg)": -123.2000551882628,
        "RAAN(deg)": 239.99281317597266,
        "Satellite Name": "Constellation 1 1070",
        "Satellite Number": 1070,
        "Semi-Major Axis(m)": 7083131.272910544,
        "Time(s)": 127
    },
    {
        "Altitude(m)": 714305.4297104613,
        "Argument of Periapsis(deg)": 0.007673344799411918,
        "Eccentricity": 0.0,
        "Inclination(deg)": 45.0,
        "Latitude(deg)": -36.484358026481374,
        "Longitude(deg)": 6.844179781516182,
        "Mean Anomaly(deg)": -123.13935404801292,
        "RAAN(deg)": 239.9927565868071,
        "Satellite Name": "Constellation 1 1070",
        "Satellite Number": 1070,
        "Semi-Major Axis(m)": 7083131.272910544,
        "Time(s)": 128
    },
    {
        "Altitude(m)": 714317.3359054576,
        "Argument of Periapsis(deg)": 0.007733292805657325,
        "Eccentricity": 0.0,
        "Inclination(deg)": 45.0,
        "Latitude(deg)": -36.51345026554584,
        "Longitude(deg)": 6.906086429176357,
        "Mean Anomaly(deg)": -123.07865290776297,
        "RAAN(deg)": 239.99269999764155,
        "Satellite Name": "Constellation 1 1070",
        "Satellite Number": 1070,
        "Semi-Major Axis(m)": 7083131.272910544,
        "Time(s)": 129
    },
    {
        "Altitude(m)": 714329.228733727,
        "Argument of Periapsis(deg)": 0.00779324081190273,
        "Eccentricity": 0.0,
        "Inclination(deg)": 45.0,
        "Latitude(deg)": -36.54250576287132,
        "Longitude(deg)": 6.968042331671471,
        "Mean Anomaly(deg)": -123.01795176751304,
        "RAAN(deg)": 239.99264340847594,
        "Satellite Name": "Constellation 1 1070",
        "Satellite Number": 1070,
        "Semi-Major Axis(m)": 7083131.272910544,
        "Time(s)": 130
    },
    {
        "Altitude(m)": 714341.1081523316,
        "Argument of Periapsis(deg)": 0.007853188818148135,
        "Eccentricity": 0.0,
        "Inclination(deg)": 45.0,
        "Latitude(deg)": -36.571524453175456,
        "Longitude(deg)": 7.03004751593454,
        "Mean Anomaly(deg)": -122.95725062726322,
        "RAAN(deg)": 239.99258681931036,
        "Satellite Name": "Constellation 1 1070",
        "Satellite Number": 1070,
        "Semi-Major Axis(m)": 7083131.272910544,
        "Time(s)": 131
    },
    {
        "Altitude(m)": 714352.9741183842,
        "Argument of Periapsis(deg)": 0.007913136824393542,
        "Eccentricity": 0.0,
        "Inclination(deg)": 45.0,
        "Latitude(deg)": -36.60050627112491,
        "Longitude(deg)": 7.092102008633857,
        "Mean Anomaly(deg)": -122.89654948701329,
        "RAAN(deg)": 239.9925302301448,
        "Satellite Name": "Constellation 1 1070",
        "Satellite Number": 1070,
        "Semi-Major Axis(m)": 7083131.272910544,
        "Time(s)": 132
    }
]